OBJECT_NAME,OBJECT_ID,EPOCH,MEAN_MOTION,ECCENTRICITY,INCLINATION,RA_OF_ASC_NODE,ARG_OF_PERICENTER,MEAN_ANOMALY,EPHEMERIS_TYPE,CLASSIFICATION_TYPE,NORAD_CAT_ID,ELEMENT_SET_NO,REV_AT_EPOCH,BSTAR,MEAN_MOTION_DOT,MEAN_MOTION_DDOT
STARLINK-36612,2026-016V,2026-05-27T03:28:26.751648,15.33442098,.00017861,97.2834,207.5387,83.5594,276.5852,0,U,67580,999,1889,.6552938E-3,.21138E-3,0
STARLINK-36632,2026-016W,2026-05-27T04:03:40.847328,15.33449130,.00006777,97.2838,207.5059,84.9946,275.1374,0,U,67581,999,1889,.9437255E-3,.30519E-3,0
STARLINK-36609,2026-016X,2026-05-27T04:23:15.317952,15.33453127,.0000546,97.2851,207.4883,77.0706,283.0598,0,U,67582,999,1889,.79291238E-3,.25616E-3,0
STARLINK-36577,2026-016Y,2026-05-27T03:24:31.799808,15.33444574,.00012473,97.2842,207.5436,47.5916,312.5432,0,U,67583,999,1889,.66043786E-3,.21306E-3,0
STARLINK-36419,2026-016Z,2026-05-27T03:40:11.260704,15.33443045,.00004717,97.2851,207.5285,313.3713,46.7490,0,U,67584,999,1889,.48103333E-3,.15485E-3,0
STARLINK-36560,2026-016AA,2026-05-27T03:12:46.918368,15.33455208,.00011569,97.2840,207.4023,99.0853,261.0521,0,U,67585,999,1888,.11677061E-2,.37824E-3,0
NAVSTAR 85 (USA 581),2026-017A,2026-05-25T18:17:22.679520,2.00571624,.00226753,55.0748,89.6548,256.5527,103.1658,0,U,67588,999,43116,0,-.18E-6,0
STARLINK-36641,2026-018A,2026-05-27T04:42:33.735456,15.33457114,.00014317,97.2850,212.2667,115.3131,244.8260,0,U,67589,999,1936,.81595635E-3,.26369E-3,0
STARLINK-36376,2026-018B,2026-05-27T04:15:09.321408,15.33444320,.00006246,97.2849,212.2913,79.3041,280.8272,0,U,67590,999,1936,.58621657E-3,.18897E-3,0
STARLINK-36391,2026-018C,2026-05-27T03:28:10.182720,15.33450305,.00010777,97.2844,212.1878,75.2048,284.9314,0,U,67591,999,1935,.41292806E-3,.13281E-3,0
STARLINK-36603,2026-018D,2026-05-27T04:07:19.495488,15.33442955,.00008533,97.2853,212.3018,75.7848,284.3489,0,U,67592,999,1936,.58123009E-3,.18734E-3,0
STARLINK-36634,2026-018E,2026-05-27T03:59:29.619456,15.33437962,.00006591,97.2853,212.3088,74.7733,285.3582,0,U,67593,999,1936,.61490992E-3,.19824E-3,0
STARLINK-36638,2026-018F,2026-05-27T03:20:20.334336,15.33450637,.00006179,97.2845,212.1924,122.2155,237.9147,0,U,67594,999,1935,.83811871E-3,.27084E-3,0
STARLINK-36628,2026-018G,2026-05-27T04:22:58.954656,15.33446782,.00012324,97.2850,212.2852,140.2701,219.8632,0,U,67595,999,1936,.81429963E-3,.26307E-3,0
STARLINK-36629,2026-018H,2026-05-27T04:34:43.812768,15.33454516,.00006799,97.2854,212.2733,60.9398,299.1913,0,U,67596,999,1936,.44363794E-3,.14278E-3,0
STARLINK-36384,2026-018J,2026-05-27T03:36:00.075168,15.33446474,.00009085,97.2844,212.3318,78.0058,282.1287,0,U,67597,999,1936,.76145523E-3,.24589E-3,0
STARLINK-36358,2026-018K,2026-05-27T04:26:53.890080,15.33458103,.00006013,97.2855,212.2808,142.2542,217.8743,0,U,67598,999,1936,.79904366E-3,.2582E-3,0
STARLINK-36582,2026-018L,2026-05-27T04:03:24.573888,15.33452694,.00012265,97.2853,212.3067,84.6499,275.4883,0,U,67599,999,1941,.99312652E-3,.32131E-3,0
STARLINK-36640,2026-018M,2026-05-27T04:30:48.632832,15.33456608,.00007042,97.2865,212.2812,136.2940,223.8359,0,U,67600,999,1936,.32348898E-3,.10386E-3,0
STARLINK-36635,2026-018N,2026-05-27T03:43:49.800000,15.33445708,.00002981,97.2857,212.3238,315.5962,44.5256,0,U,67601,999,1936,.75422132E-3,.24353E-3,0
STARLINK-36631,2026-018P,2026-05-27T03:32:04.896960,15.33442634,.00003117,97.2846,212.3340,180.6221,179.5021,0,U,67602,999,1936,.57126099E-3,.18411E-3,0
STARLINK-36626,2026-018Q,2026-05-27T03:55:34.594176,15.33446884,.00005798,97.2871,212.3164,100.2830,259.8478,0,U,67603,999,1936,.93455117E-3,.30218E-3,0
STARLINK-36605,2026-018R,2026-05-27T04:19:04.040832,15.33450537,.00004144,97.2839,212.2866,113.9701,246.1586,0,U,67604,999,1936,.81818243E-3,.26436E-3,0
STARLINK-36281,2026-018S,2026-05-27T03:12:30.622464,15.33447245,.0000805,97.2846,212.2006,91.0986,269.0349,0,U,67605,999,1935,.66740159E-3,.21534E-3,0
STARLINK-35843,2026-018T,2026-05-27T04:11:14.296128,15.33445019,.0000913,97.2866,212.2979,125.2077,234.9252,0,U,67606,999,1936,.73321656E-3,.2367E-3,0
STARLINK-36351,2026-018U,2026-05-27T03:51:39.636288,15.33455165,.00006991,97.2857,212.3196,114.6647,245.4669,0,U,67607,999,1936,.84664639E-3,.27365E-3,0
STARLINK-36411,2026-018V,2026-05-27T03:16:25.382496,15.33455014,.000028,97.2850,212.1967,57.6527,302.4743,0,U,67608,999,1935,.34157998E-3,.10972E-3,0
STARLINK-36312,2026-018W,2026-05-27T03:47:45.006720,15.33443147,.00009253,97.2849,212.3203,30.2914,329.8382,0,U,67609,999,1936,.73423648E-3,.23702E-3,0
STARLINK-36387,2026-018X,2026-05-27T04:41:52.819008,15.75244021,.00028716,97.2834,217.0021,16.3836,343.7522,0,U,67610,999,1967,.13215197E-2,.202212E-2,0
STARLINK-36636,2026-018Y,2026-05-27T03:24:15.045120,15.33450900,.00005139,97.2849,212.1891,233.1730,126.9466,0,U,67611,999,1935,.79985864E-3,.2584E-3,0
