STARLINK-36612          
1 67580U 26016V   26147.14475407  .00021138  00000+0  65529-3 0  9997
2 67580  97.2834 207.5387 0001786  83.5594 276.5852 15.33442098 18899
STARLINK-36632          
1 67581U 26016W   26147.16922277  .00030519  00000+0  94373-3 0  9994
2 67581  97.2838 207.5059 0000677  84.9946 275.1374 15.33449130 18892
STARLINK-36609          
1 67582U 26016X   26147.18281618  .00025616  00000+0  79291-3 0  9998
2 67582  97.2851 207.4883 0000546  77.0706 283.0598 15.33453127 18891
STARLINK-36577          
1 67583U 26016Y   26147.14203472  .00021306  00000+0  66044-3 0  9991
2 67583  97.2842 207.5436 0001247  47.5916 312.5432 15.33444574 18892
STARLINK-36419          
1 67584U 26016Z   26147.15290811  .00015485  00000+0  48103-3 0  9993
2 67584  97.2851 207.5285 0000471 313.3713  46.7490 15.33443045 18894
STARLINK-36560          
1 67585U 26016AA  26147.13387637  .00037824  00000+0  11677-2 0  9991
2 67585  97.2840 207.4023 0001156  99.0853 261.0521 15.33455208 18886
NAVSTAR 85 (USA 581)    
1 67588U 26017A   26145.76206805 -.00000018  00000+0  00000+0 0  9990
2 67588  55.0748  89.6548 0022675 256.5527 103.1658  2.00571624431165
STARLINK-36641          
1 67589U 26018A   26147.19622379  .00026369  00000+0  81596-3 0  9998
2 67589  97.2850 212.2667 0001431 115.3131 244.8260 15.33457114 19367
STARLINK-36376          
1 67590U 26018B   26147.17719122  .00018897  00000+0  58622-3 0  9992
2 67590  97.2849 212.2913 0000624  79.3041 280.8272 15.33444320 19361
STARLINK-36391          
1 67591U 26018C   26147.14456230  .00013281  00000+0  41293-3 0  9996
2 67591  97.2844 212.1878 0001077  75.2048 284.9314 15.33450305 19352
STARLINK-36603          
1 67592U 26018D   26147.17175342  .00018734  00000+0  58123-3 0  9990
2 67592  97.2853 212.3018 0000853  75.7848 284.3489 15.33442955 19365
STARLINK-36634          
1 67593U 26018E   26147.16631504  .00019824  00000+0  61491-3 0  9990
2 67593  97.2853 212.3088 0000659  74.7733 285.3582 15.33437962 19366
STARLINK-36638          
1 67594U 26018F   26147.13912424  .00027084  00000+0  83812-3 0  9999
2 67594  97.2845 212.1924 0000617 122.2155 237.9147 15.33450637 19359
STARLINK-36628          
1 67595U 26018G   26147.18262679  .00026307  00000+0  81430-3 0  9996
2 67595  97.2850 212.2852 0001232 140.2701 219.8632 15.33446782 19363
STARLINK-36629          
1 67596U 26018H   26147.19078487  .00014278  00000+0  44364-3 0  9999
2 67596  97.2854 212.2733 0000679  60.9398 299.1913 15.33454516 19367
STARLINK-36384          
1 67597U 26018J   26147.15000087  .00024589  00000+0  76146-3 0  9996
2 67597  97.2844 212.3318 0000908  78.0058 282.1287 15.33446474 19365
STARLINK-36358          
1 67598U 26018K   26147.18534595  .00025820  00000+0  79904-3 0  9990
2 67598  97.2855 212.2808 0000601 142.2542 217.8743 15.33458103 19367
STARLINK-36582          
1 67599U 26018L   26147.16903442  .00032131  00000+0  99313-3 0  9999
2 67599  97.2853 212.3067 0001226  84.6499 275.4883 15.33452694 19418
STARLINK-36640          
1 67600U 26018M   26147.18806288  .00010386  00000+0  32349-3 0  9998
2 67600  97.2865 212.2812 0000704 136.2940 223.8359 15.33456608 19364
STARLINK-36635          
1 67601U 26018N   26147.15543750  .00024353  00000+0  75422-3 0  9996
2 67601  97.2857 212.3238 0000298 315.5962  44.5256 15.33445708 19366
STARLINK-36631          
1 67602U 26018P   26147.14727890  .00018411  00000+0  57126-3 0  9994
2 67602  97.2846 212.3340 0000311 180.6221 179.5021 15.33442634 19368
STARLINK-36626          
1 67603U 26018Q   26147.16359484  .00030218  00000+0  93455-3 0  9991
2 67603  97.2871 212.3164 0000579 100.2830 259.8478 15.33446884 19360
STARLINK-36605          
1 67604U 26018R   26147.17990788  .00026436  00000+0  81818-3 0  9998
2 67604  97.2839 212.2866 0000414 113.9701 246.1586 15.33450537 19368
STARLINK-36281          
1 67605U 26018S   26147.13368776  .00021534  00000+0  66740-3 0  9992
2 67605  97.2846 212.2006 0000805  91.0986 269.0349 15.33447245 19350
STARLINK-35843          
1 67606U 26018T   26147.17447102  .00023670  00000+0  73322-3 0  9995
2 67606  97.2866 212.2979 0000913 125.2077 234.9252 15.33445019 19365
STARLINK-36351          
1 67607U 26018U   26147.16087542  .00027365  00000+0  84665-3 0  9990
2 67607  97.2857 212.3196 0000699 114.6647 245.4669 15.33455165 19366
STARLINK-36411          
1 67608U 26018V   26147.13640489  .00010972  00000+0  34158-3 0  9991
2 67608  97.2850 212.1967 0000280  57.6527 302.4743 15.33455014 19352
STARLINK-36312          
1 67609U 26018W   26147.15815980  .00023702  00000+0  73424-3 0  9998
2 67609  97.2849 212.3203 0000925  30.2914 329.8382 15.33443147 19366
STARLINK-36387          
1 67610U 26018X   26147.19575022  .00202212  00000+0  13215-2 0  9990
2 67610  97.2834 217.0021 0002871  16.3836 343.7522 15.75244021 19673
STARLINK-36636          
1 67611U 26018Y   26147.14184080  .00025840  00000+0  79986-3 0  9994
2 67611  97.2849 212.1891 0000513 233.1730 126.9466 15.33450900 19356
